{
"type": "FeatureCollection",
"name": "umd_analysis_boundary_ratio_0.30",
"crs": { "type": "name", "properties": { "name": "urn:ogc:def:crs:OGC:1.3:CRS84" } },
"features": [
{ "type": "Feature", "properties": { "name": "UMD College Park Analysis Area", "source": "Maryland Open Data: UMD Administrative Boundary", "method": "Concave hull with 100 m outward buffer", "concave_hull_ratio": 0.3, "buffer_m": 100 }, "geometry": { "type": "Polygon", "coordinates": [ [ [ -76.966839599153275, 39.00239225061118 ], [ -76.96693516618285, 39.002989636045513 ], [ -76.966411417205777, 39.003641507438253 ], [ -76.961611325844856, 39.005788348531716 ], [ -76.950170374148712, 39.008431951067273 ], [ -76.937828837352896, 39.008321390066143 ], [ -76.937212261196933, 39.008112136034903 ], [ -76.936849665228138, 39.007670350616095 ], [ -76.936183974622537, 39.001178679112357 ], [ -76.934729984092257, 38.998711276207352 ], [ -76.922434354061863, 38.998877675382637 ], [ -76.919929347646331, 38.998327607159091 ], [ -76.919564425541893, 38.997456595086518 ], [ -76.920761589082801, 38.994572298785002 ], [ -76.921156552638521, 38.994136392280602 ], [ -76.921914033906347, 38.993951247537254 ], [ -76.923121949364671, 38.994249473057856 ], [ -76.930163875473994, 38.992723478258618 ], [ -76.931241558364803, 38.9885823651706 ], [ -76.925354612210882, 38.984673291556099 ], [ -76.924050634449515, 38.980208541460186 ], [ -76.918714801477975, 38.973934155376398 ], [ -76.917276917998308, 38.96757361309681 ], [ -76.917563293410126, 38.966808618593234 ], [ -76.918788753148206, 38.966272175348571 ], [ -76.932892459264252, 38.966600332479977 ], [ -76.933495572237391, 38.967006210714317 ], [ -76.933757763798738, 38.967515347039175 ], [ -76.933470152167757, 38.969166481307099 ], [ -76.931468980443015, 38.972761055871679 ], [ -76.942312066750318, 38.977906710828748 ], [ -76.959510311510499, 38.982656070978507 ], [ -76.96095700252846, 38.983900892058365 ], [ -76.961401086454771, 38.984891652187741 ], [ -76.960524663925128, 38.993376835685034 ], [ -76.962061614297312, 38.994863345244141 ], [ -76.966839599153275, 39.00239225061118 ] ] ] } }
]
}
